[{"OBJECT_NAME":"STARLINK-35708","OBJECT_ID":"2025-247N","EPOCH":"2026-03-09T14:45:08.158464","MEAN_MOTION":15.30194602,"ECCENTRICITY":8.26e-5,"INCLINATION":53.1579,"RA_OF_ASC_NODE":191.6852,"ARG_OF_PERICENTER":112.4942,"MEAN_ANOMALY":247.6146,"EPHEMERIS_TYPE":0,"CLASSIFICATION_TYPE":"U","NORAD_CAT_ID":66277,"ELEMENT_SET_NO":999,"REV_AT_EPOCH":2107,"BSTAR":0.00054182,"MEAN_MOTION_DOT":0.00015719,"MEAN_MOTION_DDOT":0},{"OBJECT_NAME":"FREGAT DEB","OBJECT_ID":"2011-037BV","EPOCH":"2026-03-08T05:45:34.376544","MEAN_MOTION":11.841002,"ECCENTRICITY":0.16352432,"INCLINATION":51.4346,"RA_OF_ASC_NODE":250.7968,"ARG_OF_PERICENTER":264.1792,"MEAN_ANOMALY":77.1145,"EPHEMERIS_TYPE":0,"CLASSIFICATION_TYPE":"U","NORAD_CAT_ID":45835,"ELEMENT_SET_NO":999,"REV_AT_EPOCH":24132,"BSTAR":0.0027919036,"MEAN_MOTION_DOT":0.00015279,"MEAN_MOTION_DDOT":0}]
